IRIDIUM 126             
1 42809U 17039G   25007.86146687  .00000211  00000+0  68421-4 0  9991
2 42809  86.3972 213.1377 0001755  85.5346 274.6050 14.34215116394652
IRIDIUM 124             
1 42810U 17039H   25007.80194227  .00000848  00000+0  24622-3 0  9990
2 42810  86.4525 150.0087 0002416 101.7473 258.3999 14.43266016399339
IRIDIUM 128             
1 42811U 17039J   25007.64290299  .00000063  00000+0  15551-4 0  9990
2 42811  86.3957 244.7331 0001999  97.0366 263.1057 14.34213299394658
IRIDIUM 121             
1 42812U 17039K   25007.81073499  .00000192  00000+0  61428-4 0  9998
2 42812  86.3971 213.1829 0002149  90.4076 269.7366 14.34213810394520
IRIDIUM 133             
1 42955U 17061A   25007.88392337  .00000543  00000+0  18684-3 0  9998
2 42955  86.3957 244.7374 0001929  87.9624 272.1792 14.34215867379485
IRIDIUM 100             
1 42956U 17061B   25007.59850609  .00000544  00000+0  18707-3 0  9995
2 42956  86.3956 244.7876 0001881  89.7526 270.3886 14.34216813379442
IRIDIUM 122             
1 42957U 17061C   25008.19471164  .00000526  00000+0  18078-3 0  9999
2 42957  86.3956 244.5372 0001756  87.0808 273.0588 14.34215691379539
IRIDIUM 129             
1 42958U 17061D   25007.66193253  .00000561  00000+0  19333-3 0  9995
2 42958  86.3956 244.8213 0002085  73.0505 287.0920 14.34217506379477
